<?xml version="1.0" encoding="UTF-8"?>
<kml xmlns="http://www.opengis.net/kml/2.2"><Document>
<name>Ufa2</name>
<Placemark><name>отпечаток кадра</name><Style><LineStyle><color>ff00ffff</color><width>3</width></LineStyle><PolyStyle><fill>0</fill></PolyStyle></Style><Polygon><outerBoundaryIs><LinearRing><coordinates>56.09767595427826,54.80281011120425,0 56.10024544576362,54.803823412598085,0 56.10123343962158,54.80299109864889,0 56.09866394813622,54.801977776385634,0 56.09767595427826,54.80281011120425,0</coordinates></LinearRing></outerBoundaryIs></Polygon></Placemark>
<Placemark><name>центр кадра</name><Point><coordinates>56.09945469694995,54.80290060502789,0</coordinates></Point></Placemark>
</Document></kml>