{
  "type": "FeatureCollection",
  "features": [
    {
      "type": "Feature",
      "properties": {
        "name": "Ufa2: отпечаток",
        "status": "low_confidence"
      },
      "geometry": {
        "type": "Polygon",
        "coordinates": [
          [
            [
              56.09767595427826,
              54.80281011120425
            ],
            [
              56.10024544576362,
              54.803823412598085
            ],
            [
              56.10123343962158,
              54.80299109864889
            ],
            [
              56.09866394813622,
              54.801977776385634
            ],
            [
              56.09767595427826,
              54.80281011120425
            ]
          ]
        ]
      }
    },
    {
      "type": "Feature",
      "properties": {
        "name": "Ufa2: центр",
        "status": "low_confidence"
      },
      "geometry": {
        "type": "Point",
        "coordinates": [
          56.09945469694995,
          54.80290060502789
        ]
      }
    }
  ]
}