{
  "type": "FeatureCollection",
  "features": [
    {
      "type": "Feature",
      "properties": {
        "name": "DRZ_00755: отпечаток",
        "status": "localized"
      },
      "geometry": {
        "type": "Polygon",
        "coordinates": [
          [
            [
              6.168305377877516,
              51.216294225361715
            ],
            [
              6.169636122562679,
              51.216778533835345
            ],
            [
              6.170215108726524,
              51.21615434542869
            ],
            [
              6.168884364041361,
              51.215670030389
            ],
            [
              6.168305377877516,
              51.216294225361715
            ]
          ]
        ]
      }
    },
    {
      "type": "Feature",
      "properties": {
        "name": "DRZ_00755: центр",
        "status": "localized"
      },
      "geometry": {
        "type": "Point",
        "coordinates": [
          6.169260243302034,
          51.21622428544832
        ]
      }
    }
  ]
}